start=new Date('2022-02-06T00:00:00.000Z').valueOf();
sats=[{"COUNTRY_CODE":"US","REV_AT_EPOCH":"5492","RCS_SIZE":"LARGE","TLE_LINE1":"1 47651U 21012AH  22036.45396019 -.00000486  00000-0 -13732-4 0  9999","TIME_SYSTEM":"UTC","MEAN_ANOMALY":"291.4517","RA_OF_ASC_NODE":"295.0225","MEAN_MOTION_DDOT":"0.0000000000000","REF_FRAME":"TEME","ECCENTRICITY":"0.00020510","TLE_LINE2":"2 47651  53.0561 295.0225 0002051  68.6690 291.4517 15.06398004 54928","PERIOD":"95.592","EPHEMERIS_TYPE":"0","CENTER_NAME":"EARTH","SITE":"AFETR","SEMIMAJOR_AXIS":"6925.355","ARG_OF_PERICENTER":"68.6690","APOAPSIS":"548.640","OBJECT_NAME":"STARLINK-2035","MEAN_MOTION":"15.06398004","PERIAPSIS":"545.799","ELEMENT_SET_NO":"999","DECAY_DATE":null,"OBJECT_TYPE":"PAYLOAD","OBJECT_ID":"2021-012AH","FILE":"3292709","INCLINATION":"53.0561","NORAD_CAT_ID":"47651","MEAN_MOTION_DOT":"-0.00000486","LAUNCH_DATE":"2021-02-16","EPOCH":"2022-02-05T10:53:42.160416","GP_ID":"195368097","BSTAR":"-0.00001373200000","MEAN_ELEMENT_THEORY":"SGP4","CLASSIFICATION_TYPE":"U"},{"ARG_OF_PERICENTER":"57.4295","SEMIMAJOR_AXIS":"6925.352","APOAPSIS":"548.280","OBJECT_NAME":"STARLINK-2036","ECCENTRICITY":"0.00015340","TLE_LINE2":"2 47652  53.0545 295.1986 0001534  57.4295 302.6842 15.06398812 54910","EPHEMERIS_TYPE":"0","PERIOD":"95.592","CENTER_NAME":"EARTH","SITE":"AFETR","TIME_SYSTEM":"UTC","MEAN_ANOMALY":"302.6842","RA_OF_ASC_NODE":"295.1986","REF_FRAME":"TEME","MEAN_MOTION_DDOT":"0.0000000000000","COUNTRY_CODE":"US","REV_AT_EPOCH":"5491","RCS_SIZE":"LARGE","TLE_LINE1":"1 47652U 21012AJ  22036.41435113 -.00000174  00000-0  71939-5 0  9992","EPOCH":"2022-02-05T09:56:39.937632","GP_ID":"195368849","BSTAR":"0.00000719390000","MEAN_ELEMENT_THEORY":"SGP4","CLASSIFICATION_TYPE":"U","FILE":"3292709","INCLINATION":"53.0545","NORAD_CAT_ID":"47652","MEAN_MOTION_DOT":"-0.00000174","LAUNCH_DATE":"2021-02-16","DECAY_DATE":null,"OBJECT_ID":"2021-012AJ","OBJECT_TYPE":"PAYLOAD","MEAN_MOTION":"15.06398812","PERIAPSIS":"546.155","ELEMENT_SET_NO":"999"},{"OBJECT_ID":"2021-012AK","OBJECT_TYPE":"PAYLOAD","DECAY_DATE":null,"PERIAPSIS":"545.902","MEAN_MOTION":"15.06406131","ELEMENT_SET_NO":"999","GP_ID":"195373121","EPOCH":"2022-02-05T19:21:57.190752","CLASSIFICATION_TYPE":"U","MEAN_ELEMENT_THEORY":"SGP4","BSTAR":"-0.00001817800000","NORAD_CAT_ID":"47653","FILE":"3292760","INCLINATION":"53.0531","LAUNCH_DATE":"2021-02-16","MEAN_MOTION_DOT":"-0.00000552","TIME_SYSTEM":"UTC","REF_FRAME":"TEME","MEAN_MOTION_DDOT":"0.0000000000000","RA_OF_ASC_NODE":"273.4225","MEAN_ANOMALY":"303.2583","REV_AT_EPOCH":"5473","COUNTRY_CODE":"US","TLE_LINE1":"1 47653U 21012AK  22036.80691193 -.00000552  00000-0 -18178-4 0  9994","RCS_SIZE":"LARGE","APOAPSIS":"548.488","ARG_OF_PERICENTER":"56.8585","SEMIMAJOR_AXIS":"6925.330","OBJECT_NAME":"STARLINK-2037","TLE_LINE2":"2 47653  53.0531 273.4225 0001867  56.8585 303.2583 15.06406131 54738","ECCENTRICITY":"0.00018670","SITE":"AFETR","CENTER_NAME":"EARTH","PERIOD":"95.592","EPHEMERIS_TYPE":"0"},{"TLE_LINE2":"2 47654  53.0543 295.1700 0001511  68.2592 291.8558 15.06408150 54919","ECCENTRICITY":"0.00015110","SITE":"AFETR","CENTER_NAME":"EARTH","EPHEMERIS_TYPE":"0","PERIOD":"95.592","APOAPSIS":"548.235","SEMIMAJOR_AXIS":"6925.324","ARG_OF_PERICENTER":"68.2592","OBJECT_NAME":"STARLINK-2038","REV_AT_EPOCH":"5491","COUNTRY_CODE":"US","TLE_LINE1":"1 47654U 21012AL  22036.41804087  .00001374  00000-0  11111-3 0  9990","RCS_SIZE":"LARGE","TIME_SYSTEM":"UTC","REF_FRAME":"TEME","MEAN_MOTION_DDOT":"0.0000000000000","RA_OF_ASC_NODE":"295.1700","MEAN_ANOMALY":"291.8558","NORAD_CAT_ID":"47654","INCLINATION":"53.0543","FILE":"3292709","LAUNCH_DATE":"2021-02-16","MEAN_MOTION_DOT":"0.00001374","GP_ID":"195367348","EPOCH":"2022-02-05T10:01:58.731168","CLASSIFICATION_TYPE":"U","MEAN_ELEMENT_THEORY":"SGP4","BSTAR":"0.00011111000000","PERIAPSIS":"546.142","MEAN_MOTION":"15.06408150","ELEMENT_SET_NO":"999","OBJECT_TYPE":"PAYLOAD","OBJECT_ID":"2021-012AL","DECAY_DATE":null},{"CENTER_NAME":"EARTH","SITE":"AFETR","EPHEMERIS_TYPE":"0","PERIOD":"95.593","TLE_LINE2":"2 47655  53.0555 293.7194 0001677  66.8956 293.2210 15.06380296 54444","ECCENTRICITY":"0.00016770","OBJECT_NAME":"STARLINK-2039","APOAPSIS":"548.435","SEMIMAJOR_AXIS":"6925.409","ARG_OF_PERICENTER":"66.8956","TLE_LINE1":"1 47655U 21012AM  22036.74241180  .00004403  00000-0  31448-3 0  9997","RCS_SIZE":"LARGE","REV_AT_EPOCH":"5444","COUNTRY_CODE":"US","REF_FRAME":"TEME","MEAN_MOTION_DDOT":"0.0000000000000","RA_OF_ASC_NODE":"293.7194","MEAN_ANOMALY":"293.2210","TIME_SYSTEM":"UTC","LAUNCH_DATE":"2021-02-16","MEAN_MOTION_DOT":"0.00004403","NORAD_CAT_ID":"47655","INCLINATION":"53.0555","FILE":"3292761","CLASSIFICATION_TYPE":"U","MEAN_ELEMENT_THEORY":"SGP4","BSTAR":"0.00031448000000","GP_ID":"195373129","EPOCH":"2022-02-05T17:49:04.379520","ELEMENT_SET_NO":"999","PERIAPSIS":"546.113","MEAN_MOTION":"15.06380296","OBJECT_ID":"2021-012AM","OBJECT_TYPE":"PAYLOAD","DECAY_DATE":null},{"OBJECT_NAME":"STARLINK-2040","SEMIMAJOR_AXIS":"6925.343","ARG_OF_PERICENTER":"57.8145","APOAPSIS":"548.660","EPHEMERIS_TYPE":"0","PERIOD":"95.592","CENTER_NAME":"EARTH","SITE":"AFETR","ECCENTRICITY":"0.00020960","TLE_LINE2":"2 47656  53.0539 275.4292 0002096  57.8145 302.3047 15.06401802 55188","MEAN_ANOMALY":"302.3047","RA_OF_ASC_NODE":"275.4292","MEAN_MOTION_DDOT":"0.0000000000000","REF_FRAME":"TEME","TIME_SYSTEM":"UTC","RCS_SIZE":"LARGE","TLE_LINE1":"1 47656U 21012AN  22036.36090895 -.00003949  00000-0 -24633-3 0  9995","COUNTRY_CODE":"US","REV_AT_EPOCH":"5518","BSTAR":"-0.00024633000000","MEAN_ELEMENT_THEORY":"SGP4","CLASSIFICATION_TYPE":"U","EPOCH":"2022-02-05T08:39:42.533280","GP_ID":"195368350","MEAN_MOTION_DOT":"-0.00003949","LAUNCH_DATE":"2021-02-16","FILE":"3292709","INCLINATION":"53.0539","NORAD_CAT_ID":"47656","DECAY_DATE":null,"OBJECT_TYPE":"PAYLOAD","OBJECT_ID":"2021-012AN","ELEMENT_SET_NO":"999","MEAN_MOTION":"15.06401802","PERIAPSIS":"545.756"},{"MEAN_MOTION":"15.06403944","PERIAPSIS":"545.916","ELEMENT_SET_NO":"999","DECAY_DATE":null,"OBJECT_ID":"2021-012AP","OBJECT_TYPE":"PAYLOAD","FILE":"3292709","INCLINATION":"53.0539","NORAD_CAT_ID":"47657","MEAN_MOTION_DOT":"0.00003286","LAUNCH_DATE":"2021-02-16","EPOCH":"2022-02-05T10:23:12.408864","GP_ID":"195368595","BSTAR":"0.00023940000000","MEAN_ELEMENT_THEORY":"SGP4","CLASSIFICATION_TYPE":"U","COUNTRY_CODE":"US","REV_AT_EPOCH":"5491","RCS_SIZE":"LARGE","TLE_LINE1":"1 47657U 21012AP  22036.43278251  .00003286  00000-0  23940-3 0  9990","TIME_SYSTEM":"UTC","MEAN_ANOMALY":"295.7698","RA_OF_ASC_NODE":"295.1185","MEAN_MOTION_DDOT":"0.0000000000000","REF_FRAME":"TEME","ECCENTRICITY":"0.00018560","TLE_LINE2":"2 47657  53.0539 295.1185 0001856  64.3482 295.7698 15.06403944 54915","PERIOD":"95.592","EPHEMERIS_TYPE":"0","SITE":"AFETR","CENTER_NAME":"EARTH","ARG_OF_PERICENTER":"64.3482","SEMIMAJOR_AXIS":"6925.336","APOAPSIS":"548.487","OBJECT_NAME":"STARLINK-2041"},{"TIME_SYSTEM":"UTC","MEAN_MOTION_DDOT":"0.0000000000000","REF_FRAME":"TEME","RA_OF_ASC_NODE":"293.6568","MEAN_ANOMALY":"290.2770","REV_AT_EPOCH":"5445","COUNTRY_CODE":"US","TLE_LINE1":"1 47658U 21012AQ  22036.75714885 -.00005620  00000-0 -35876-3 0  9991","RCS_SIZE":"LARGE","APOAPSIS":"548.332","SEMIMAJOR_AXIS":"6925.382","ARG_OF_PERICENTER":"69.8388","OBJECT_NAME":"STARLINK-2042","TLE_LINE2":"2 47658  53.0534 293.6568 0001568  69.8388 290.2770 15.06389248 54454","ECCENTRICITY":"0.00015680","SITE":"AFETR","CENTER_NAME":"EARTH","EPHEMERIS_TYPE":"0","PERIOD":"95.593","OBJECT_ID":"2021-012AQ","OBJECT_TYPE":"PAYLOAD","DECAY_DATE":null,"PERIAPSIS":"546.161","MEAN_MOTION":"15.06389248","ELEMENT_SET_NO":"999","GP_ID":"195373648","EPOCH":"2022-02-05T18:10:17.660640","CLASSIFICATION_TYPE":"U","MEAN_ELEMENT_THEORY":"SGP4","BSTAR":"-0.00035876000000","NORAD_CAT_ID":"47658","FILE":"3292762","INCLINATION":"53.0534","LAUNCH_DATE":"2021-02-16","MEAN_MOTION_DOT":"-0.00005620"},{"PERIOD":"95.592","EPHEMERIS_TYPE":"0","SITE":"AFETR","CENTER_NAME":"EARTH","TLE_LINE2":"2 47659  53.0548 172.9257 0001728  84.2412 281.5418 15.06399944 56145","ECCENTRICITY":"0.00017280","OBJECT_NAME":"STARLINK-2043","APOAPSIS":"548.410","SEMIMAJOR_AXIS":"6925.349","ARG_OF_PERICENTER":"84.2412","RCS_SIZE":"LARGE","TLE_LINE1":"1 47659U 21012AR  22036.91668981  .00002439  00000-0  18260-3 0  9996","COUNTRY_CODE":"US","REV_AT_EPOCH":"5614","RA_OF_ASC_NODE":"172.9257","MEAN_ANOMALY":"281.5418","MEAN_MOTION_DDOT":"0.0000000000000","REF_FRAME":"TEME","TIME_SYSTEM":"UTC","MEAN_MOTION_DOT":"0.00002439","LAUNCH_DATE":"2021-02-16","INCLINATION":"53.0548","FILE":"3292788","NORAD_CAT_ID":"47659","MEAN_ELEMENT_THEORY":"SGP4","BSTAR":"0.00018260000000","CLASSIFICATION_TYPE":"U","GP_ID":"195373159","EPOCH":"2022-02-05T22:00:01.999584","ELEMENT_SET_NO":"999","MEAN_MOTION":"15.06399944","PERIAPSIS":"546.017","OBJECT_TYPE":"PAYLOAD","OBJECT_ID":"2021-012AR","DECAY_DATE":null},{"ECCENTRICITY":"0.00016510","TLE_LINE2":"2 47660  53.0538 162.9253 0001651  55.5756 170.3533 15.06416924 56295","EPHEMERIS_TYPE":"0","PERIOD":"95.591","SITE":"AFETR","CENTER_NAME":"EARTH","SEMIMAJOR_AXIS":"6925.297","ARG_OF_PERICENTER":"55.5756","APOAPSIS":"548.305","OBJECT_NAME":"STARLINK-2044","COUNTRY_CODE":"US","REV_AT_EPOCH":"5629","RCS_SIZE":"LARGE","TLE_LINE1":"1 47660U 21012AS  22036.91668981 -.00045583  00000-0 -30595-2 0  9991","TIME_SYSTEM":"UTC","MEAN_ANOMALY":"170.3533","RA_OF_ASC_NODE":"162.9253","MEAN_MOTION_DDOT":"0.0000000000000","REF_FRAME":"TEME","FILE":"3292763","INCLINATION":"53.0538","NORAD_CAT_ID":"47660","MEAN_MOTION_DOT":"-0.00045583","LAUNCH_DATE":"2021-02-16","EPOCH":"2022-02-05T22:00:01.999584","GP_ID":"195373672","BSTAR":"-0.00305950000000","MEAN_ELEMENT_THEORY":"SGP4","CLASSIFICATION_TYPE":"U","MEAN_MOTION":"15.06416924","PERIAPSIS":"546.018","ELEMENT_SET_NO":"999","DECAY_DATE":null,"OBJECT_TYPE":"PAYLOAD","OBJECT_ID":"2021-012AS"}];
